IRIDIUM 7               
1 24793U 97020B   24159.39801231  .00000705  00000+0  23953-3 0  9997
2 24793  86.3950 333.9341 0001901  88.6138 271.5276 14.35242527418120
IRIDIUM 5               
1 24795U 97020D   24159.53069729  .00006246  00000+0  59062-3 0  9999
2 24795  86.3929 255.4521 0122735  37.7101 323.2647 14.87876246429666
IRIDIUM 4               
1 24796U 97020E   24159.75953879  .00000804  00000+0  26928-3 0  9991
2 24796  86.3945 330.9082 0002104  85.9766 274.1672 14.36169055418741
IRIDIUM 914             
1 24836U 97030A   24159.74594952  .00000902  00000+0  28010-3 0  9992
2 24836  86.3930 340.6196 0003189  56.7492 303.4013 14.40028776415325
IRIDIUM 16              
1 24841U 97030F   24159.84715306  .00000842  00000+0  27267-3 0  9993
2 24841  86.4040   2.5270 0001899 150.7187 209.4118 14.37921221413459
IRIDIUM 911             
1 24842U 97030G   24159.82987073  .00001080  00000+0  29419-3 0  9990
2 24842  86.4465   1.6685 0012085 265.4169  94.5654 14.46563942420924
IRIDIUM 17              
1 24870U 97034B   24159.39260411  .00000726  00000+0  23836-3 0  9990
2 24870  86.3974  32.3082 0003058 116.6345 243.5166 14.37015438409747
IRIDIUM 920             
1 24871U 97034C   24159.84320739  .00000784  00000+0  23900-3 0  9997
2 24871  86.3985  12.2241 0009758 230.5442 129.4895 14.40732574412927
